{"type": "FeatureCollection", "features": [ {"type": "Feature", "properties": {"norad_id": 34784, "name": "COSMOS 2251 DEB", "group": "cosmos-2251-debris", "lat": 72.55164094288295, "lon": 36.43962219231532, "alt_km": 664.6890679489625, "timestamp": "2025-12-09T11:33:55.196277+00:00", "meta": {"OBJECT_NAME": "COSMOS 2251 DEB", "OBJECT_ID": "1993-036AAM", "EPOCH": "2025-12-08T17:06:22.289472", "MEAN_MOTION": 14.60752159, "ECCENTRICITY": 0.00495491, "INCLINATION": 74.0075, "RA_OF_ASC_NODE": 332.0636, "ARG_OF_PERICENTER": 142.5832, "MEAN_ANOMALY": 217.8802, "EPHEMERIS_TYPE": 0, "CLASSIFICATION_TYPE": "U", "NORAD_CAT_ID": 34784, "ELEMENT_SET_NO": 999, "REV_AT_EPOCH": 88476, "BSTAR": 0.00083539405, "MEAN_MOTION_DOT": 4.118e-05, "MEAN_MOTION_DDOT": 0}, "tle": {"line1": "1 34784U 93036AAM 25342.71275798  .00004118  00000+0  83539-3 0  9993", "line2": "2 34784  74.0075 332.0636 0049549 142.5832 217.8802 14.60752159884761"}}, "geometry": {"type": "Point", "coordinates": [36.43962219231532, 72.55164094288295]}}, {"type": "Feature", "properties": {"norad_id": 34790, "name": "COSMOS 2251 DEB", "group": "cosmos-2251-debris", "lat": -73.86589397929508, "lon": 168.35760402862988, "alt_km": 760.5430406097039, "timestamp": "2025-12-09T11:33:55.196287+00:00", "meta": {"OBJECT_NAME": "COSMOS 2251 DEB", "OBJECT_ID": "1993-036AAT", "EPOCH": "2025-12-09T04:18:49.662144", "MEAN_MOTION": 14.24610447, "ECCENTRICITY": 0.0100744, "INCLINATION": 74.0552, "RA_OF_ASC_NODE": 250.1156, "ARG_OF_PERICENTER": 312.5017, "MEAN_ANOMALY": 211.6898, "EPHEMERIS_TYPE": 0, "CLASSIFICATION_TYPE": "U", "NORAD_CAT_ID": 34790, "ELEMENT_SET_NO": 999, "REV_AT_EPOCH": 86522, "BSTAR": 0.0010328, "MEAN_MOTION_DOT": 2.504e-05, "MEAN_MOTION_DDOT": 0}, "tle": {"line1": "1 34790U 93036AAT 25343.17974146  .00002504  00000+0  10328-2 0  9996", "line2": "2 34790  74.0552 250.1156 0100744 312.5017 211.6898 14.24610447865224"}}, "geometry": {"type": "Point", "coordinates": [168.35760402862988, -73.86589397929508]}}, {"type": "Feature", "properties": {"norad_id": 34792, "name": "COSMOS 2251 DEB", "group": "cosmos-2251-debris", "lat": -33.02240707083323, "lon": 6.628152014805527, "alt_km": 707.1031496615506, "timestamp": "2025-12-09T11:33:55.196297+00:00", "meta": {"OBJECT_NAME": "COSMOS 2251 DEB", "OBJECT_ID": "1993-036AAV", "EPOCH": "2025-12-08T19:50:36.220704", "MEAN_MOTION": 14.55905085, "ECCENTRICITY": 0.00125331, "INCLINATION": 74.0175, "RA_OF_ASC_NODE": 177.135, "ARG_OF_PERICENTER": 270.9515, "MEAN_ANOMALY": 111.5468, "EPHEMERIS_TYPE": 0, "CLASSIFICATION_TYPE": "U", "NORAD_CAT_ID": 34792, "ELEMENT_SET_NO": 999, "REV_AT_EPOCH": 87593, "BSTAR": 0.0014836234, "MEAN_MOTION_DOT": 6.499e-05, "MEAN_MOTION_DDOT": 0}, "tle": {"line1": "1 34792U 93036AAV 25342.82680811  .00006499  00000+0  14836-2 0  9997", "line2": "2 34792  74.0175 177.1350 0012533 270.9515 111.5468 14.55905085875938"}}, "geometry": {"type": "Point", "coordinates": [6.628152014805527, -33.02240707083323]}}, {"type": "Feature", "properties": {"norad_id": 34793, "name": "COSMOS 2251 DEB", "group": "cosmos-2251-debris", "lat": -15.564111219787875, "lon": 80.96854271861147, "alt_km": 796.5904744638083, "timestamp": "2025-12-09T11:33:55.196307+00:00", "meta": {"OBJECT_NAME": "COSMOS 2251 DEB", "OBJECT_ID": "1993-036AAW", "EPOCH": "2025-12-09T04:40:40.706112", "MEAN_MOTION": 14.38634562, "ECCENTRICITY": 0.0050144, "INCLINATION": 74.003, "RA_OF_ASC_NODE": 256.9155, "ARG_OF_PERICENTER": 51.9609, "MEAN_ANOMALY": 98.14, "EPHEMERIS_TYPE": 0, "CLASSIFICATION_TYPE": "U", "NORAD_CAT_ID": 34793, "ELEMENT_SET_NO": 999, "REV_AT_EPOCH": 87279, "BSTAR": 0.00040009, "MEAN_MOTION_DOT": 1.218e-05, "MEAN_MOTION_DDOT": 0}, "tle": {"line1": "1 34793U 93036AAW 25343.19491558  .00001218  00000+0  40009-3 0  9993", "line2": "2 34793  74.0030 256.9155 0050144  51.9609  98.1400 14.38634562872796"}}, "geometry": {"type": "Point", "coordinates": [80.96854271861147, -15.564111219787875]}}, {"type": "Feature", "properties": {"norad_id": 34796, "name": "COSMOS 2251 DEB", "group": "cosmos-2251-debris", "lat": 7.863977720902484, "lon": 40.18566581413294, "alt_km": 795.1870488897375, "timestamp": "2025-12-09T11:33:55.196317+00:00", "meta": {"OBJECT_NAME": "COSMOS 2251 DEB", "OBJECT_ID": "1993-036AAZ", "EPOCH": "2025-12-09T03:04:31.147392", "MEAN_MOTION": 14.48661522, "ECCENTRICITY": 0.0100234, "INCLINATION": 74.0291, "RA_OF_ASC_NODE": 223.1156, "ARG_OF_PERICENTER": 325.9533, "MEAN_ANOMALY": 162.1432, "EPHEMERIS_TYPE": 0, "CLASSIFICATION_TYPE": "U", "NORAD_CAT_ID": 34796, "ELEMENT_SET_NO": 999, "REV_AT_EPOCH": 87975, "BSTAR": 0.00086381, "MEAN_MOTION_DOT": 3.438e-05, "MEAN_MOTION_DDOT": 0}, "tle": {"line1": "1 34796U 93036AAZ 25343.12813828  .00003438  00000+0  86381-3 0  9996", "line2": "2 34796  74.0291 223.1156 0100234 325.9533 162.1432 14.48661522879758"}}, "geometry": {"type": "Point", "coordinates": [40.18566581413294, 7.863977720902484]}}, {"type": "Feature", "properties": {"norad_id": 34797, "name": "COSMOS 2251 DEB", "group": "cosmos-2251-debris", "lat": 4.625034186910039, "lon": 107.3861576213496, "alt_km": 793.5010344025268, "timestamp": "2025-12-09T11:33:55.196351+00:00", "meta": {"OBJECT_NAME": "COSMOS 2251 DEB", "OBJECT_ID": "1993-036ABA", "EPOCH": "2025-12-08T02:15:30.483648", "MEAN_MOTION": 14.42690241, "ECCENTRICITY": 0.00721111, "INCLINATION": 73.9779, "RA_OF_ASC_NODE": 108.638, "ARG_OF_PERICENTER": 222.8023, "MEAN_ANOMALY": 136.7506, "EPHEMERIS_TYPE": 0, "CLASSIFICATION_TYPE": "U", "NORAD_CAT_ID": 34797, "ELEMENT_SET_NO": 999, "REV_AT_EPOCH": 87348, "BSTAR": 0.0033221371, "MEAN_MOTION_DOT": 0.00011397, "MEAN_MOTION_DDOT": 0}, "tle": {"line1": "1 34797U 93036ABA 25342.09410282  .00011397  00000+0  33221-2 0  9996", "line2": "2 34797  73.9779 108.6380 0072111 222.8023 136.7506 14.42690241873482"}}, "geometry": {"type": "Point", "coordinates": [107.3861576213496, 4.625034186910039]}}, {"type": "Feature", "properties": {"norad_id": 34814, "name": "COSMOS 2251 DEB", "group": "cosmos-2251-debris", "lat": 53.33569373507018, "lon": -5.683814108106097, "alt_km": 802.4552841677114, "timestamp": "2025-12-09T11:33:55.196373+00:00", "meta": {"OBJECT_NAME": "COSMOS 2251 DEB", "OBJECT_ID": "1993-036ABD", "EPOCH": "2025-12-08T05:18:03.614688", "MEAN_MOTION": 14.36862714, "ECCENTRICITY": 0.00565126, "INCLINATION": 73.8958, "RA_OF_ASC_NODE": 333.8174, "ARG_OF_PERICENTER": 224.1506, "MEAN_ANOMALY": 152.4116, "EPHEMERIS_TYPE": 0, "CLASSIFICATION_TYPE": "U", "NORAD_CAT_ID": 34814, "ELEMENT_SET_NO": 999, "REV_AT_EPOCH": 87268, "BSTAR": 0.001254214, "MEAN_MOTION_DOT": 3.751e-05, "MEAN_MOTION_DDOT": 0}, "tle": {"line1": "1 34814U 93036ABD 25342.22087517  .00003751  00000+0  12542-2 0  9990", "line2": "2 34814  73.8958 333.8174 0056512 224.1506 152.4116 14.36862714872683"}}, "geometry": {"type": "Point", "coordinates": [-5.683814108106097, 53.33569373507018]}}, {"type": "Feature", "properties": {"norad_id": 34815, "name": "COSMOS 2251 DEB", "group": "cosmos-2251-debris", "lat": 73.88595120238489, "lon": -29.81552155124428, "alt_km": 653.7286055539707, "timestamp": "2025-12-09T11:33:55.196384+00:00", "meta": {"OBJECT_NAME": "COSMOS 2251 DEB", "OBJECT_ID": "1993-036ABE", "EPOCH": "2025-12-09T03:02:56.249088", "MEAN_MOTION": 14.78233572, "ECCENTRICITY": 0.0058886, "INCLINATION": 74.0454, "RA_OF_ASC_NODE": 248.8937, "ARG_OF_PERICENTER": 318.8365, "MEAN_ANOMALY": 40.8375, "EPHEMERIS_TYPE": 0, "CLASSIFICATION_TYPE": "U", "NORAD_CAT_ID": 34815, "ELEMENT_SET_NO": 999, "REV_AT_EPOCH": 88574, "BSTAR": 0.0011393, "MEAN_MOTION_DOT": 8.485e-05, "MEAN_MOTION_DDOT": 0}, "tle": {"line1": "1 34815U 93036ABE 25343.12703992  .00008485  00000+0  11393-2 0  9995", "line2": "2 34815  74.0454 248.8937 0058886 318.8365  40.8375 14.78233572885748"}}, "geometry": {"type": "Point", "coordinates": [-29.81552155124428, 73.88595120238489]}}, {"type": "Feature", "properties": {"norad_id": 34816, "name": "COSMOS 2251 DEB", "group": "cosmos-2251-debris", "lat": 6.040458996738651, "lon": 150.19158400706826, "alt_km": 1288.2114627215615, "timestamp": "2025-12-09T11:33:55.196394+00:00", "meta": {"OBJECT_NAME": "COSMOS 2251 DEB", "OBJECT_ID": "1993-036ABF", "EPOCH": "2025-12-06T22:26:27.336768", "MEAN_MOTION": 13.5829822, "ECCENTRICITY": 0.03736298, "INCLINATION": 73.886, "RA_OF_ASC_NODE": 152.5929, "ARG_OF_PERICENTER": 218.068, "MEAN_ANOMALY": 297.1187, "EPHEMERIS_TYPE": 0, "CLASSIFICATION_TYPE": "U", "NORAD_CAT_ID": 34816, "ELEMENT_SET_NO": 999, "REV_AT_EPOCH": 82704, "BSTAR": 0.0017880706, "MEAN_MOTION_DOT": 2.026e-05, "MEAN_MOTION_DDOT": 0}, "tle": {"line1": "1 34816U 93036ABF 25340.93503862  .00002026  00000+0  17881-2 0  9999", "line2": "2 34816  73.8860 152.5929 0373629 218.0680 297.1187 13.58298220827040"}}, "geometry": {"type": "Point", "coordinates": [150.19158400706826, 6.040458996738651]}}, {"type": "Feature", "properties": {"norad_id": 34818, "name": "COSMOS 2251 DEB", "group": "cosmos-2251-debris", "lat": 49.3553763006439, "lon": 103.45102488500731, "alt_km": 769.0848335933206, "timestamp": "2025-12-09T11:33:55.196406+00:00", "meta": {"OBJECT_NAME": "COSMOS 2251 DEB", "OBJECT_ID": "1993-036ABH", "EPOCH": "2025-12-08T15:45:47.779200", "MEAN_MOTION": 14.36959493, "ECCENTRICITY": 0.0023979, "INCLINATION": 74.0355, "RA_OF_ASC_NODE": 304.4464, "ARG_OF_PERICENTER": 21.1656, "MEAN_ANOMALY": 159.8945, "EPHEMERIS_TYPE": 0, "CLASSIFICATION_TYPE": "U", "NORAD_CAT_ID": 34818, "ELEMENT_SET_NO": 999, "REV_AT_EPOCH": 87311, "BSTAR": 0.00045428, "MEAN_MOTION_DOT": 1.324e-05, "MEAN_MOTION_DDOT": 0}, "tle": {"line1": "1 34818U 93036ABH 25342.65680300  .00001324  00000+0  45428-3 0  9994", "line2": "2 34818  74.0355 304.4464 0023979  21.1656 159.8945 14.36959493873110"}}, "geometry": {"type": "Point", "coordinates": [103.45102488500731, 49.3553763006439]}}]}